[{"OBJECT_NAME":"NUSAT-33 (ALBANIA-2)","OBJECT_ID":"2023-001AQ","EPOCH":"2026-03-09T22:33:27.663264","MEAN_MOTION":15.26923259,"ECCENTRICITY":0.00076854,"INCLINATION":97.3178,"RA_OF_ASC_NODE":131.8399,"ARG_OF_PERICENTER":52.546,"MEAN_ANOMALY":307.6477,"EPHEMERIS_TYPE":0,"CLASSIFICATION_TYPE":"U","NORAD_CAT_ID":55047,"ELEMENT_SET_NO":999,"REV_AT_EPOCH":17716,"BSTAR":0.0004947656,"MEAN_MOTION_DOT":0.00013029,"MEAN_MOTION_DDOT":0},{"OBJECT_NAME":"STARLINK-31531","OBJECT_ID":"2024-068Y","EPOCH":"2026-03-09T03:12:42.929280","MEAN_MOTION":15.27570634,"ECCENTRICITY":0.00018776,"INCLINATION":43.0024,"RA_OF_ASC_NODE":342.5063,"ARG_OF_PERICENTER":271.296,"MEAN_ANOMALY":88.7677,"EPHEMERIS_TYPE":0,"CLASSIFICATION_TYPE":"U","NORAD_CAT_ID":59477,"ELEMENT_SET_NO":999,"REV_AT_EPOCH":10906,"BSTAR":-8.0016775e-5,"MEAN_MOTION_DOT":-2.463e-5,"MEAN_MOTION_DDOT":0}]
